STARLINK-33654          
1 63466U 25070G   26068.54131014  .00026581  00000+0  97146-3 0  9991
2 63466  42.9983 260.6446 0000959 260.8354  99.2389 15.27597063 52957
REAL                    
1 64875U 25154G   26068.72233414  .00022901  00000+0  82904-3 0  9994
2 64875  97.4133 137.2581 0001853 118.5876 241.5550 15.28408058 34830
